[
  {
    "OBJECT_NAME": "RASSVET-3 3",
    "OBJECT_ID": "2026-061C",
    "EPOCH": "2026-04-19T21:57:32.659776",
    "MEAN_MOTION": 15.91512292,
    "ECCENTRICITY": 0.0020884,
    "INCLINATION": 82.2974,
    "RA_OF_ASC_NODE": 77.8791,
    "ARG_OF_PERICENTER": 330.3726,
    "MEAN_ANOMALY": 29.6361,
    "EPHEMERIS_TYPE": 0,
    "CLASSIFICATION_TYPE": "U",
    "NORAD_CAT_ID": 68362,
    "ELEMENT_SET_NO": 999,
    "REV_AT_EPOCH": 432,
    "BSTAR": 0.00018027,
    "MEAN_MOTION_DOT": 0.00059379,
    "MEAN_MOTION_DDOT": 1.3625e-07
  },
  {
    "OBJECT_NAME": "RASSVET-3 4",
    "OBJECT_ID": "2026-061D",
    "EPOCH": "2026-04-19T15:56:41.623296",
    "MEAN_MOTION": 15.91634661,
    "ECCENTRICITY": 0.00212506,
    "INCLINATION": 82.2976,
    "RA_OF_ASC_NODE": 78.1688,
    "ARG_OF_PERICENTER": 330.4609,
    "MEAN_ANOMALY": 29.5461,
    "EPHEMERIS_TYPE": 0,
    "CLASSIFICATION_TYPE": "U",
    "NORAD_CAT_ID": 68363,
    "ELEMENT_SET_NO": 999,
    "REV_AT_EPOCH": 428,
    "BSTAR": 0.00043845098,
    "MEAN_MOTION_DOT": 0.0014493,
    "MEAN_MOTION_DDOT": 6.42077e-06
  },
  {
    "OBJECT_NAME": "RASSVET-3 5",
    "OBJECT_ID": "2026-061E",
    "EPOCH": "2026-04-19T15:55:11.561664",
    "MEAN_MOTION": 15.91713015,
    "ECCENTRICITY": 0.00208374,
    "INCLINATION": 82.2965,
    "RA_OF_ASC_NODE": 78.1647,
    "ARG_OF_PERICENTER": 329.9538,
    "MEAN_ANOMALY": 30.0538,
    "EPHEMERIS_TYPE": 0,
    "CLASSIFICATION_TYPE": "U",
    "NORAD_CAT_ID": 68364,
    "ELEMENT_SET_NO": 999,
    "REV_AT_EPOCH": 428,
    "BSTAR": 0.00035749972,
    "MEAN_MOTION_DOT": 0.00118623,
    "MEAN_MOTION_DDOT": 3.913917e-06
  },
  {
    "OBJECT_NAME": "RASSVET-3 6",
    "OBJECT_ID": "2026-061F",
    "EPOCH": "2026-04-19T15:52:19.428672",
    "MEAN_MOTION": 15.91874042,
    "ECCENTRICITY": 0.00206216,
    "INCLINATION": 82.297,
    "RA_OF_ASC_NODE": 78.162,
    "ARG_OF_PERICENTER": 330.1481,
    "MEAN_ANOMALY": 29.8614,
    "EPHEMERIS_TYPE": 0,
    "CLASSIFICATION_TYPE": "U",
    "NORAD_CAT_ID": 68365,
    "ELEMENT_SET_NO": 999,
    "REV_AT_EPOCH": 428,
    "BSTAR": 0.00037606199,
    "MEAN_MOTION_DOT": 0.00125753,
    "MEAN_MOTION_DDOT": 4.553934e-06
  },
  {
    "OBJECT_NAME": "RASSVET-3 7",
    "OBJECT_ID": "2026-061G",
    "EPOCH": "2026-04-19T15:54:24.293952",
    "MEAN_MOTION": 15.91730912,
    "ECCENTRICITY": 0.00206385,
    "INCLINATION": 82.2965,
    "RA_OF_ASC_NODE": 78.164,
    "ARG_OF_PERICENTER": 330.0333,
    "MEAN_ANOMALY": 29.9757,
    "EPHEMERIS_TYPE": 0,
    "CLASSIFICATION_TYPE": "U",
    "NORAD_CAT_ID": 68366,
    "ELEMENT_SET_NO": 999,
    "REV_AT_EPOCH": 428,
    "BSTAR": 0.00034674138,
    "MEAN_MOTION_DOT": 0.00115126,
    "MEAN_MOTION_DDOT": 3.619824e-06
  },
  {
    "OBJECT_NAME": "RASSVET-3 8",
    "OBJECT_ID": "2026-061H",
    "EPOCH": "2026-04-19T15:54:48.117024",
    "MEAN_MOTION": 15.91766286,
    "ECCENTRICITY": 0.00207754,
    "INCLINATION": 82.2971,
    "RA_OF_ASC_NODE": 78.1647,
    "ARG_OF_PERICENTER": 329.6969,
    "MEAN_ANOMALY": 30.3101,
    "EPHEMERIS_TYPE": 0,
    "CLASSIFICATION_TYPE": "U",
    "NORAD_CAT_ID": 68367,
    "ELEMENT_SET_NO": 999,
    "REV_AT_EPOCH": 428,
    "BSTAR": 0.00038223971,
    "MEAN_MOTION_DOT": 0.00127141,
    "MEAN_MOTION_DDOT": 4.674194e-06
  },
  {
    "OBJECT_NAME": "RASSVET-3 9",
    "OBJECT_ID": "2026-061J",
    "EPOCH": "2026-04-19T18:48:05.245056",
    "MEAN_MOTION": 15.91507463,
    "ECCENTRICITY": 0.00253224,
    "INCLINATION": 82.3006,
    "RA_OF_ASC_NODE": 78.0179,
    "ARG_OF_PERICENTER": 330.1125,
    "MEAN_ANOMALY": 29.87,
    "EPHEMERIS_TYPE": 0,
    "CLASSIFICATION_TYPE": "U",
    "NORAD_CAT_ID": 68368,
    "ELEMENT_SET_NO": 999,
    "REV_AT_EPOCH": 430,
    "BSTAR": 0.00038858015,
    "MEAN_MOTION_DOT": 0.00128773,
    "MEAN_MOTION_DDOT": 4.809488e-06
  },
  {
    "OBJECT_NAME": "RASSVET-3 10",
    "OBJECT_ID": "2026-061K",
    "EPOCH": "2026-04-19T15:54:37.927008",
    "MEAN_MOTION": 15.91673298,
    "ECCENTRICITY": 0.00207013,
    "INCLINATION": 82.297,
    "RA_OF_ASC_NODE": 78.165,
    "ARG_OF_PERICENTER": 329.9519,
    "MEAN_ANOMALY": 30.0564,
    "EPHEMERIS_TYPE": 0,
    "CLASSIFICATION_TYPE": "U",
    "NORAD_CAT_ID": 68369,
    "ELEMENT_SET_NO": 999,
    "REV_AT_EPOCH": 428,
    "BSTAR": 0.00039171826,
    "MEAN_MOTION_DOT": 0.00129642,
    "MEAN_MOTION_DDOT": 4.900407e-06
  },
  {
    "OBJECT_NAME": "RASSVET-3 11",
    "OBJECT_ID": "2026-061L",
    "EPOCH": "2026-04-19T15:53:44.918880",
    "MEAN_MOTION": 15.91690255,
    "ECCENTRICITY": 0.0020486,
    "INCLINATION": 82.2973,
    "RA_OF_ASC_NODE": 78.1639,
    "ARG_OF_PERICENTER": 329.764,
    "MEAN_ANOMALY": 30.2449,
    "EPHEMERIS_TYPE": 0,
    "CLASSIFICATION_TYPE": "U",
    "NORAD_CAT_ID": 68370,
    "ELEMENT_SET_NO": 999,
    "REV_AT_EPOCH": 428,
    "BSTAR": 0.00037404393,
    "MEAN_MOTION_DOT": 0.00123867,
    "MEAN_MOTION_DDOT": 4.371653e-06
  },
  {
    "OBJECT_NAME": "RASSVET-3 12",
    "OBJECT_ID": "2026-061M",
    "EPOCH": "2026-04-19T15:49:42.800160",
    "MEAN_MOTION": 15.92131656,
    "ECCENTRICITY": 0.00201603,
    "INCLINATION": 82.2968,
    "RA_OF_ASC_NODE": 78.1593,
    "ARG_OF_PERICENTER": 329.6114,
    "MEAN_ANOMALY": 30.3988,
    "EPHEMERIS_TYPE": 0,
    "CLASSIFICATION_TYPE": "U",
    "NORAD_CAT_ID": 68371,
    "ELEMENT_SET_NO": 999,
    "REV_AT_EPOCH": 428,
    "BSTAR": 0.00039084006,
    "MEAN_MOTION_DOT": 0.00132319,
    "MEAN_MOTION_DDOT": 5.187582e-06
  },
  {
    "OBJECT_NAME": "RASSVET-3 13",
    "OBJECT_ID": "2026-061N",
    "EPOCH": "2026-04-19T15:51:14.233824",
    "MEAN_MOTION": 15.90181154,
    "ECCENTRICITY": 0.0019173,
    "INCLINATION": 82.2962,
    "RA_OF_ASC_NODE": 78.1602,
    "ARG_OF_PERICENTER": 331.0185,
    "MEAN_ANOMALY": 29.0021,
    "EPHEMERIS_TYPE": 0,
    "CLASSIFICATION_TYPE": "U",
    "NORAD_CAT_ID": 68372,
    "ELEMENT_SET_NO": 999,
    "REV_AT_EPOCH": 428,
    "BSTAR": 0.00048275292,
    "MEAN_MOTION_DOT": 0.0014754,
    "MEAN_MOTION_DDOT": 6.567759e-06
  },
  {
    "OBJECT_NAME": "RASSVET-3 14",
    "OBJECT_ID": "2026-061P",
    "EPOCH": "2026-04-19T18:48:56.738592",
    "MEAN_MOTION": 15.90259154,
    "ECCENTRICITY": 0.00191785,
    "INCLINATION": 82.2941,
    "RA_OF_ASC_NODE": 78.0122,
    "ARG_OF_PERICENTER": 334.9045,
    "MEAN_ANOMALY": 25.1293,
    "EPHEMERIS_TYPE": 0,
    "CLASSIFICATION_TYPE": "U",
    "NORAD_CAT_ID": 68373,
    "ELEMENT_SET_NO": 999,
    "REV_AT_EPOCH": 430,
    "BSTAR": 0.00048411471,
    "MEAN_MOTION_DOT": 0.00148543,
    "MEAN_MOTION_DDOT": 6.680281e-06
  },
  {
    "OBJECT_NAME": "RASSVET-3 15",
    "OBJECT_ID": "2026-061Q",
    "EPOCH": "2026-04-19T15:49:15.182400",
    "MEAN_MOTION": 15.90214465,
    "ECCENTRICITY": 0.00187027,
    "INCLINATION": 82.2968,
    "RA_OF_ASC_NODE": 78.1581,
    "ARG_OF_PERICENTER": 330.222,
    "MEAN_ANOMALY": 29.7986,
    "EPHEMERIS_TYPE": 0,
    "CLASSIFICATION_TYPE": "U",
    "NORAD_CAT_ID": 68374,
    "ELEMENT_SET_NO": 999,
    "REV_AT_EPOCH": 428,
    "BSTAR": 0.00036563411,
    "MEAN_MOTION_DOT": 0.00111934,
    "MEAN_MOTION_DDOT": 3.282306e-06
  },
  {
    "OBJECT_NAME": "RASSVET-3 16",
    "OBJECT_ID": "2026-061R",
    "EPOCH": "2026-04-19T15:29:28.355712",
    "MEAN_MOTION": 15.83104905,
    "ECCENTRICITY": 0.00180749,
    "INCLINATION": 82.2955,
    "RA_OF_ASC_NODE": 78.2987,
    "ARG_OF_PERICENTER": 340.1233,
    "MEAN_ANOMALY": 19.9328,
    "EPHEMERIS_TYPE": 0,
    "CLASSIFICATION_TYPE": "U",
    "NORAD_CAT_ID": 68375,
    "ELEMENT_SET_NO": 999,
    "REV_AT_EPOCH": 427,
    "BSTAR": 0.00034182164,
    "MEAN_MOTION_DOT": 0.00074307,
    "MEAN_MOTION_DDOT": 0
  }
]